*******************************************************************************
Ephemeris / WWW_USER Mon Mar 24 08:14:38 2025 Pasadena, USA      / Horizons    
*******************************************************************************
Target body name: (2018 VN1)                      {source: JPL#9}
Center body name: Earth (399)                     {source: DE441}
Center-site name: Mauna Kea
*******************************************************************************
Start time      : A.D. 2018-Nov-11 03:53:00.0000 UT      
Stop  time      : A.D. 2018-Nov-11 16:18:00.0000 UT      
Step-size       : 1 minutes
*******************************************************************************
Target pole/equ : undefined
Target radii    : undefined                                                    
Center geodetic : 204.5278, 19.8260847, 4.21024   {E-lon(deg),Lat(deg),Alt(km)}
Center cylindric: 204.5278, 6006.35451, 2151.0229 {E-lon(deg),Dxy(km),Dz(km)}
Center pole/equ : ITRF93                          {East-longitude positive}
Center radii    : 6378.137, 6378.137, 6356.752 km {Equator_a, b, pole_c}       
Target primary  : Sun
Vis. interferer : MOON (R_eq= 1737.400) km        {source: DE441}
Rel. light bend : Sun                             {source: DE441}
Rel. lght bnd GM: 1.3271E+11 km^3/s^2                                          
Small-body perts: Yes                             {source: SB441-N16}
Atmos refraction: NO (AIRLESS)
RA format       : HMS
Time format     : CAL 
Calendar mode   : Mixed Julian/Gregorian
RTS-only print  : NO       
EOP file        : eop.250321.p250617                                           
EOP coverage    : DATA-BASED 1962-JAN-20 TO 2025-MAR-21. PREDICTS-> 2025-JUN-16
Units conversion: 1 au= 149597870.700 km, c= 299792.458 km/s, 1 day= 86400.0 s 
Table cut-offs 1: Elevation (-90.0deg=NO ),Airmass (>38.000=NO), Daylight (YES)
Table cut-offs 2: Solar elongation (  0.0,180.0=NO ),Local Hour Angle( 0.0=NO )
Table cut-offs 3: RA/DEC angular rate (     0.0=NO )                           
*******************************************************************************
Initial IAU76/J2000 heliocentric ecliptic osculating elements (au, days, deg.):
  EPOCH=  2458428.5 ! 2018-Nov-06.00 (TDB)         Residual RMS= .27219        
   EC= .3884608603153671   QR= 1.011903292497374   TP= 2458433.1511739166      
   OM= 228.4137592171332   W=  180.2469578564258   IN= 3.355185598403424       
  Equivalent ICRF heliocentric cartesian coordinates (au, au/d):
   X= 7.364971791856070E-01  Y= 6.361813492829538E-01  Z= 2.815132693616627E-01
  VX=-1.417073247356795E-02 VY= 1.354428742085641E-02 VZ= 4.590405825264917E-03
Asteroid physical parameters (km, seconds, rotational period in hours):        
   GM= n.a.                RAD= n.a.               ROTPER= n.a.                
   H= 26.2                 G= .150                 B-V= n.a.                   
                           ALBEDO= n.a.            STYP= n.a.                  
*******************************************************************************
 Date__(UT)__HR:MN     R.A._________(ICRF)_________DEC
******************************************************
$$SOE
 2018-Nov-11 10:02     05 29 09.926457 +20 46 39.19479
 2018-Nov-11 10:03     05 29 10.746992 +20 46 34.07390
 2018-Nov-11 10:04     05 29 11.567187 +20 46 28.95144
 2018-Nov-11 10:05     05 29 12.387044 +20 46 23.82740
 2018-Nov-11 10:06     05 29 13.206563 +20 46 18.70177
 2018-Nov-11 10:07     05 29 14.025748 +20 46 13.57456
 2018-Nov-11 10:08     05 29 14.844599 +20 46 08.44576
 2018-Nov-11 10:09     05 29 15.663117 +20 46 03.31536
 2018-Nov-11 10:10     05 29 16.481304 +20 45 58.18336
 2018-Nov-11 10:11     05 29 17.299163 +20 45 53.04975
 2018-Nov-11 10:12     05 29 18.116693 +20 45 47.91453
 2018-Nov-11 10:13     05 29 18.933897 +20 45 42.77770
 2018-Nov-11 10:14     05 29 19.750776 +20 45 37.63924
 2018-Nov-11 10:15     05 29 20.567333 +20 45 32.49917
 2018-Nov-11 10:16     05 29 21.383567 +20 45 27.35747
 2018-Nov-11 10:17     05 29 22.199482 +20 45 22.21413
 2018-Nov-11 10:18     05 29 23.015078 +20 45 17.06916
 2018-Nov-11 10:19     05 29 23.830357 +20 45 11.92254
 2018-Nov-11 10:20     05 29 24.645320 +20 45 06.77429
 2018-Nov-11 10:21     05 29 25.459970 +20 45 01.62438
 2018-Nov-11 10:22     05 29 26.274307 +20 44 56.47282
 2018-Nov-11 10:23     05 29 27.088334 +20 44 51.31960
 2018-Nov-11 10:24     05 29 27.902051 +20 44 46.16472
 2018-Nov-11 10:25     05 29 28.715461 +20 44 41.00818
 2018-Nov-11 10:26     05 29 29.528565 +20 44 35.84996
 2018-Nov-11 10:27     05 29 30.341364 +20 44 30.69008
 2018-Nov-11 10:28     05 29 31.153861 +20 44 25.52851
 2018-Nov-11 10:29     05 29 31.966057 +20 44 20.36527
 2018-Nov-11 10:30     05 29 32.777952 +20 44 15.20034
 2018-Nov-11 10:31     05 29 33.589550 +20 44 10.03372
 2018-Nov-11 10:32     05 29 34.400851 +20 44 04.86540
 2018-Nov-11 10:33     05 29 35.211858 +20 43 59.69539
 2018-Nov-11 10:34     05 29 36.022571 +20 43 54.52368
 2018-Nov-11 10:35     05 29 36.832993 +20 43 49.35027
 2018-Nov-11 10:36     05 29 37.643125 +20 43 44.17515
 2018-Nov-11 10:37     05 29 38.452968 +20 43 38.99832
 2018-Nov-11 10:38     05 29 39.262525 +20 43 33.81977
 2018-Nov-11 10:39     05 29 40.071796 +20 43 28.63951
 2018-Nov-11 10:40     05 29 40.880784 +20 43 23.45752
 2018-Nov-11 10:41     05 29 41.689491 +20 43 18.27381
 2018-Nov-11 10:42     05 29 42.497917 +20 43 13.08837
 2018-Nov-11 10:43     05 29 43.306064 +20 43 07.90119
 2018-Nov-11 10:44     05 29 44.113935 +20 43 02.71229
 2018-Nov-11 10:45     05 29 44.921530 +20 42 57.52164
 2018-Nov-11 10:46     05 29 45.728852 +20 42 52.32925
 2018-Nov-11 10:47     05 29 46.535902 +20 42 47.13512
 2018-Nov-11 10:48     05 29 47.342681 +20 42 41.93924
 2018-Nov-11 10:49     05 29 48.149192 +20 42 36.74160
 2018-Nov-11 10:50     05 29 48.955436 +20 42 31.54221
 2018-Nov-11 10:51     05 29 49.761415 +20 42 26.34107
 2018-Nov-11 10:52     05 29 50.567130 +20 42 21.13816
 2018-Nov-11 10:53     05 29 51.372583 +20 42 15.93349
 2018-Nov-11 10:54     05 29 52.177776 +20 42 10.72705
 2018-Nov-11 10:55     05 29 52.982710 +20 42 05.51884
 2018-Nov-11 10:56     05 29 53.787388 +20 42 00.30886
 2018-Nov-11 10:57     05 29 54.591810 +20 41 55.09711
 2018-Nov-11 10:58     05 29 55.395978 +20 41 49.88357
 2018-Nov-11 10:59     05 29 56.199895 +20 41 44.66825
 2018-Nov-11 11:00     05 29 57.003562 +20 41 39.45115
 2018-Nov-11 11:01     05 29 57.806980 +20 41 34.23227
 2018-Nov-11 11:02     05 29 58.610151 +20 41 29.01159
 2018-Nov-11 11:03     05 29 59.413078 +20 41 23.78912
 2018-Nov-11 11:04     05 30 00.215761 +20 41 18.56486
 2018-Nov-11 11:05     05 30 01.018202 +20 41 13.33880
 2018-Nov-11 11:06     05 30 01.820404 +20 41 08.11094
 2018-Nov-11 11:07     05 30 02.622367 +20 41 02.88128
 2018-Nov-11 11:08     05 30 03.424094 +20 40 57.64981
 2018-Nov-11 11:09     05 30 04.225586 +20 40 52.41653
 2018-Nov-11 11:10     05 30 05.026845 +20 40 47.18145
 2018-Nov-11 11:11     05 30 05.827872 +20 40 41.94455
 2018-Nov-11 11:12     05 30 06.628670 +20 40 36.70584
 2018-Nov-11 11:13     05 30 07.429241 +20 40 31.46531
 2018-Nov-11 11:14     05 30 08.229584 +20 40 26.22297
 2018-Nov-11 11:15     05 30 09.029704 +20 40 20.97880
 2018-Nov-11 11:16     05 30 09.829601 +20 40 15.73281
 2018-Nov-11 11:17     05 30 10.629277 +20 40 10.48500
 2018-Nov-11 11:18     05 30 11.428734 +20 40 05.23535
 2018-Nov-11 11:19     05 30 12.227973 +20 39 59.98388
 2018-Nov-11 11:20     05 30 13.026996 +20 39 54.73058
 2018-Nov-11 11:21     05 30 13.825806 +20 39 49.47544
 2018-Nov-11 11:22     05 30 14.624403 +20 39 44.21847
 2018-Nov-11 11:23     05 30 15.422790 +20 39 38.95966
 2018-Nov-11 11:24     05 30 16.220968 +20 39 33.69901
 2018-Nov-11 11:25     05 30 17.018939 +20 39 28.43652
 2018-Nov-11 11:26     05 30 17.816705 +20 39 23.17219
 2018-Nov-11 11:27     05 30 18.614267 +20 39 17.90601
 2018-Nov-11 11:28     05 30 19.411628 +20 39 12.63799
 2018-Nov-11 11:29     05 30 20.208789 +20 39 07.36812
 2018-Nov-11 11:30     05 30 21.005751 +20 39 02.09640
 2018-Nov-11 11:31     05 30 21.802518 +20 38 56.82283
 2018-Nov-11 11:32     05 30 22.599089 +20 38 51.54741
 2018-Nov-11 11:33     05 30 23.395468 +20 38 46.27013
 2018-Nov-11 11:34     05 30 24.191655 +20 38 40.99100
 2018-Nov-11 11:35     05 30 24.987653 +20 38 35.71001
 2018-Nov-11 11:36     05 30 25.783464 +20 38 30.42716
 2018-Nov-11 11:37     05 30 26.579089 +20 38 25.14245
 2018-Nov-11 11:38     05 30 27.374529 +20 38 19.85588
 2018-Nov-11 11:39     05 30 28.169788 +20 38 14.56745
 2018-Nov-11 11:40     05 30 28.964866 +20 38 09.27716
 2018-Nov-11 11:41     05 30 29.759765 +20 38 03.98500
 2018-Nov-11 11:42     05 30 30.554487 +20 37 58.69097
 2018-Nov-11 11:43     05 30 31.349035 +20 37 53.39508
 2018-Nov-11 11:44     05 30 32.143409 +20 37 48.09732
 2018-Nov-11 11:45     05 30 32.937611 +20 37 42.79769
 2018-Nov-11 11:46     05 30 33.731644 +20 37 37.49619
 2018-Nov-11 11:47     05 30 34.525508 +20 37 32.19282
 2018-Nov-11 11:48     05 30 35.319207 +20 37 26.88758
 2018-Nov-11 11:49     05 30 36.112741 +20 37 21.58046
 2018-Nov-11 11:50     05 30 36.906112 +20 37 16.27147
 2018-Nov-11 11:51     05 30 37.699323 +20 37 10.96061
 2018-Nov-11 11:52     05 30 38.492375 +20 37 05.64787
 2018-Nov-11 11:53     05 30 39.285269 +20 37 00.33325
 2018-Nov-11 11:54     05 30 40.078008 +20 36 55.01676
 2018-Nov-11 11:55     05 30 40.870593 +20 36 49.69839
 2018-Nov-11 11:56     05 30 41.663027 +20 36 44.37814
 2018-Nov-11 11:57     05 30 42.455310 +20 36 39.05602
 2018-Nov-11 11:58     05 30 43.247445 +20 36 33.73201
 2018-Nov-11 11:59     05 30 44.039434 +20 36 28.40613
 2018-Nov-11 12:00     05 30 44.831278 +20 36 23.07836
 2018-Nov-11 12:01     05 30 45.622979 +20 36 17.74871
 2018-Nov-11 12:02     05 30 46.414540 +20 36 12.41719
 2018-Nov-11 12:03     05 30 47.205961 +20 36 07.08378
 2018-Nov-11 12:04     05 30 47.997244 +20 36 01.74849
